[{"OBJECT_NAME":"NEXTSAT-1","OBJECT_ID":"2018-099BF","EPOCH":"2026-03-09T16:24:07.497504","MEAN_MOTION":15.08057555,"ECCENTRICITY":0.001132,"INCLINATION":97.4203,"RA_OF_ASC_NODE":114.8574,"ARG_OF_PERICENTER":323.961,"MEAN_ANOMALY":36.0854,"EPHEMERIS_TYPE":0,"CLASSIFICATION_TYPE":"U","NORAD_CAT_ID":43811,"ELEMENT_SET_NO":999,"REV_AT_EPOCH":39688,"BSTAR":0.00029857014,"MEAN_MOTION_DOT":4.546e-5,"MEAN_MOTION_DDOT":0},{"OBJECT_NAME":"STARLINK-4199","OBJECT_ID":"2022-062AD","EPOCH":"2026-03-09T06:48:29.044800","MEAN_MOTION":15.0883942,"ECCENTRICITY":0.00014174,"INCLINATION":53.2185,"RA_OF_ASC_NODE":25.944,"ARG_OF_PERICENTER":88.0503,"MEAN_ANOMALY":272.0652,"EPHEMERIS_TYPE":0,"CLASSIFICATION_TYPE":"U","NORAD_CAT_ID":52857,"ELEMENT_SET_NO":999,"REV_AT_EPOCH":20586,"BSTAR":-7.6589e-8,"MEAN_MOTION_DOT":-2.89e-6,"MEAN_MOTION_DDOT":0}]
