NEXTSAT-1               
1 43811U 18099BF  26068.68342010  .00004546  00000+0  29857-3 0  9992
2 43811  97.4203 114.8574 0011320 323.9610  36.0854 15.08057555396886
STARLINK-4199           
1 52857U 22062AD  26068.28366950 -.00000289  00000+0 -76589-7 0  9992
2 52857  53.2185  25.9440 0001417  88.0503 272.0652 15.08839420205869
